NORAD_CAT_ID,OBJECT_NAME,OBJECT_TYPE,EPOCH,MEAN_MOTION,ECCENTRICITY,INCLINATION,RA_OF_ASC_NODE,ARG_OF_PERICENTER,MEAN_ANOMALY,BSTAR,MEAN_MOTION_DOT,MEAN_MOTION_DDOT,TLE_LINE0,TLE_LINE1,TLE_LINE2,SEMIMAJOR_AXIS,PERIOD,APOGEE,PERIGEE,DECAYED
55669.0,STARLINK-5459,PAYLOAD,2023-09-08 09:55:45,14.99286158,0.0003097,69.999,307.1849,264.2907,95.79,-0.00014817,-1.906e-05,0.0,0 STARLINK-5459,1 55669U 23021AT  23251.41371991 -.00001906  00000-0 -14817-3 0  9999,2 55669  69.9990 307.1849 0003097 264.2907  95.7900 14.99286158 32183,6947.238,96.046,571.254,566.951,0.0
55669.0,STARLINK-5459,PAYLOAD,2023-09-08 13:07:54,14.99284987,0.0003095,69.9989,306.8481,265.004,95.0766,-0.00015502,-1.989e-05,0.0,0 STARLINK-5459,1 55669U 23021AT  23251.54715578 -.00001989  00000-0 -15502-3 0  9999,2 55669  69.9989 306.8481 0003095 265.0040  95.0766 14.99284987 32501,6947.241,96.046,571.256,566.956,0.0
55669.0,STARLINK-5459,PAYLOAD,2023-09-09 09:56:50,14.99291525,0.0003394,69.998,304.6567,271.3557,88.7214,-2.4713e-05,-3.96e-06,0.0,0 STARLINK-5459,1 55669U 23021AT  23252.41447324 -.00000396  00000-0 -24713-4 0  9993,2 55669  69.9980 304.6567 0003394 271.3557  88.7214 14.99291525 32332,6947.221,96.045,571.444,566.728,0.0
55669.0,STARLINK-5459,PAYLOAD,2023-09-09 13:08:59,14.99293586,0.0003285,69.9983,304.3197,269.9148,90.1635,-2.4701e-06,-1.24e-06,0.0,0 STARLINK-5459,1 55669U 23021AT  23252.54790609 -.00000124  00000-0 -24701-5 0  9991,2 55669  69.9983 304.3197 0003285 269.9148  90.1635 14.99293586 32657,6947.215,96.045,571.362,566.798,0.0
55669.0,STARLINK-5459,PAYLOAD,2023-09-10 09:57:55,14.99295456,0.0003361,69.9979,302.1292,269.8814,90.1961,0.00023682,2.805e-05,0.0,0 STARLINK-5459,1 55669U 23021AT  23253.41522192  .00002805  00000-0  23682-3 0  9999,2 55669  69.9979 302.1292 0003361 269.8814  90.1961 14.99295456 32489,6947.209,96.045,571.409,566.739,0.0
55669.0,STARLINK-5459,PAYLOAD,2023-09-10 13:10:03,14.99297934,0.0003358,69.9979,301.7923,269.9097,90.1678,0.00025731,3.056e-05,0.0,0 STARLINK-5459,1 55669U 23021AT  23253.54865428  .00003056  00000-0  25731-3 0  9991,2 55669  69.9979 301.7923 0003358 269.9097  90.1678 14.99297934 32809,6947.201,96.045,571.399,566.733,0.0
55669.0,STARLINK-5459,PAYLOAD,2023-09-11 01:58:37,14.99310027,0.0003371,69.9978,300.4441,269.6225,90.4548,0.00024025,2.848e-05,0.0,0 STARLINK-5459,1 55669U 23021AT  23254.08238283  .00002848  00000-0  24025-3 0  9997,2 55669  69.9978 300.4441 0003371 269.6225  90.4548 14.99310027 32587,6947.164,96.044,571.371,566.687,0.0
55669.0,STARLINK-5459,PAYLOAD,2023-09-11 13:11:07,14.99319361,0.0003374,69.9979,299.2649,269.7257,90.3516,0.00034449,4.126e-05,0.0,0 STARLINK-5459,1 55669U 23021AT  23254.54939289  .00004126  00000-0  34449-3 0  9994,2 55669  69.9979 299.2649 0003374 269.7257  90.3516 14.99319361 32957,6947.135,96.044,571.344,566.656,0.0
55669.0,STARLINK-5459,PAYLOAD,2023-09-12 01:59:42,14.99313084,0.0003264,69.9987,297.9178,268.6571,91.4215,0.00017134,2.004e-05,0.0,0 STARLINK-5459,1 55669U 23021AT  23255.08312971  .00002004  00000-0  17134-3 0  9992,2 55669  69.9987 297.9178 0003264 268.6571  91.4215 14.99313084 32733,6947.154,96.044,571.287,566.752,0.0
55669.0,STARLINK-5459,PAYLOAD,2023-09-12 13:12:12,14.99315712,0.0003016,69.9982,296.7373,265.0493,95.0323,0.00011246,1.283e-05,0.0,0 STARLINK-5459,1 55669U 23021AT  23255.55014290  .00001283  00000-0  11246-3 0  9993,2 55669  69.9982 296.7373 0003016 265.0493  95.0323 14.99315712 33103,6947.146,96.044,571.107,566.916,0.0
55669.0,STARLINK-5459,PAYLOAD,2023-09-13 10:01:08,14.99300844,0.0002922,69.999,294.5486,266.5277,93.5548,0.00023097,2.733e-05,0.0,0 STARLINK-5459,1 55669U 23021AT  23256.41746321  .00002733  00000-0  23097-3 0  9994,2 55669  69.9990 294.5486 0002922 266.5277  93.5548 14.99300844 32936,6947.192,96.045,571.087,567.027,0.0
55669.0,STARLINK-5459,PAYLOAD,2023-09-13 13:13:16,14.99313162,0.0002949,69.999,294.2116,267.9642,92.118,-2.6238e-05,-4.15e-06,0.0,0 STARLINK-5459,1 55669U 23021AT  23256.55089068 -.00000415  00000-0 -26238-4 0  9995,2 55669  69.9990 294.2116 0002949 267.9642  92.1180 14.99313162 33253,6947.154,96.044,571.068,566.97,0.0
55669.0,STARLINK-5459,PAYLOAD,2023-09-13 19:37:34,14.99327626,0.0002989,69.9994,293.5373,272.338,87.7437,-0.00056143,-6.962e-05,0.0,0 STARLINK-5459,1 55669U 23021AT  23256.81775686 -.00006962  00000-0 -56143-3 0  9992,2 55669  69.9994 293.5373 0002989 272.3380  87.7437 14.99327626 33296,6947.11,96.043,571.051,566.898,0.0
55669.0,STARLINK-5459,PAYLOAD,2023-09-14 10:02:14,14.99292887,0.0003021,69.9994,292.0214,267.6435,92.4379,-0.00013157,-1.703e-05,0.0,0 STARLINK-5459,1 55669U 23021AT  23257.41822357 -.00001703  00000-0 -13157-3 0  9993,2 55669  69.9994 292.0214 0003021 267.6435  92.4379 14.99292887 33085,6947.217,96.045,571.181,566.983,0.0
55669.0,STARLINK-5459,PAYLOAD,2023-09-14 13:14:23,14.99292413,0.0003056,69.9996,291.6848,267.8447,92.2362,-0.00012889,-1.67e-05,0.0,0 STARLINK-5459,1 55669U 23021AT  23257.55165832 -.00001670  00000-0 -12889-3 0  9990,2 55669  69.9996 291.6848 0003056 267.8447  92.2362 14.99292413 33409,6947.218,96.045,571.206,566.96,0.0
55669.0,STARLINK-5459,PAYLOAD,2023-09-14 19:38:40,14.99293809,0.0003042,69.9988,291.0097,267.3067,92.7745,-5.6773e-05,-7.88e-06,0.0,0 STARLINK-5459,1 55669U 23021AT  23257.81852334 -.00000788  00000-0 -56773-4 0  9999,2 55669  69.9988 291.0097 0003042 267.3067  92.7745 14.99293809 33442,6947.214,96.045,571.192,566.966,0.0
55669.0,STARLINK-5459,PAYLOAD,2023-09-15 02:02:57,14.99297892,0.0003075,69.9989,290.3362,270.5783,89.5024,-6.5652e-06,-1.74e-06,0.0,0 STARLINK-5459,1 55669U 23021AT  23258.08538793 -.00000174  00000-0 -65652-5 0  9995,2 55669  69.9989 290.3362 0003075 270.5783  89.5024 14.99297892 33188,6947.201,96.045,571.203,566.93,0.0
55669.0,STARLINK-5459,PAYLOAD,2023-09-15 11:39:23,14.99297083,0.0002955,69.9987,289.3251,263.6683,96.414,-2.5623e-07,-9.7e-07,0.0,0 STARLINK-5459,1 55669U 23021AT  23258.48569011 -.00000097  00000-0 -25623-6 0  9995,2 55669  69.9987 289.3251 0002955 263.6683  96.4140 14.99297083 33547,6947.204,96.045,571.122,567.016,0.0
55669.0,STARLINK-5459,PAYLOAD,2023-09-16 00:28:35,14.98863143,0.0003523,69.9988,287.9779,260.4925,99.5836,-0.0044465,-0.00053481,0.0,0 STARLINK-5459,1 55669U 23021AT  23259.01984979 -.00053481  00000-0 -44465-2 0  9995,2 55669  69.9988 287.9779 0003523 260.4925  99.5836 14.98863143 33320,6948.545,96.073,572.858,567.962,0.0
55669.0,STARLINK-5459,PAYLOAD,2023-09-16 10:05:19,14.98742817,0.0002707,69.999,286.9684,265.8381,94.2469,-0.0051399,-0.00061539,0.0,0 STARLINK-5459,1 55669U 23021AT  23259.42036711 -.00061539  00000-0 -51399-2 0  9999,2 55669  69.9990 286.9684 0002707 265.8381  94.2469 14.98742817 33389,6948.917,96.081,572.663,568.901,0.0
55669.0,STARLINK-5459,PAYLOAD,2023-09-16 11:41:26,14.98729802,0.0003079,69.9983,286.8,270.5761,89.5046,-0.0052388,-0.00062692,0.0,0 STARLINK-5459,1 55669U 23021AT  23259.48711650 -.00062692  00000-0 -52388-2 0  9997,2 55669  69.9983 286.8000 0003079 270.5761  89.5046 14.98729802 33691,6948.957,96.081,572.961,568.682,0.0
55669.0,STARLINK-5459,PAYLOAD,2023-09-17 02:06:23,14.98727571,0.0002319,69.9989,285.2855,246.7142,113.3773,-0.0044506,-0.00053338,0.0,0 STARLINK-5459,1 55669U 23021AT  23260.08777621 -.00053338  00000-0 -44506-2 0  9995,2 55669  69.9989 285.2855 0002319 246.7142 113.3773 14.98727571 33483,6948.964,96.082,572.44,569.217,0.0
55669.0,STARLINK-5459,PAYLOAD,2023-09-17 11:43:09,14.98636057,0.000314,69.9988,284.2762,270.6843,89.3956,-0.0048027,-0.00057385,0.0,0 STARLINK-5459,1 55669U 23021AT  23260.48830929 -.00057385  00000-0 -48027-2 0  9998,2 55669  69.9988 284.2762 0003140 270.6843  89.3956 14.98636057 33848,6949.247,96.087,573.294,568.93,0.0
55669.0,STARLINK-5459,PAYLOAD,2023-09-18 02:08:20,14.98375287,0.0003271,69.9987,282.7605,267.0005,93.0779,-0.00068808,-8.303e-05,0.0,0 STARLINK-5459,1 55669U 23021AT  23261.08912752 -.00008303  00000-0 -68808-3 0  9996,2 55669  69.9987 282.7605 0003271 267.0005  93.0779 14.98375287 33638,6950.053,96.104,574.191,569.644,0.0
55669.0,STARLINK-5459,PAYLOAD,2023-09-18 14:00:01,14.98334953,0.0003001,69.9999,281.5138,274.4961,230.5986,-0.00095446,-0.00011464,0.0,0 STARLINK-5459,1 55669U 23021AT  23261.58334491 -.00011464  00000-0 -95446-3 0  9999,2 55669  69.9999 281.5138 0003001 274.4961 230.5986 14.98334953 33704,6950.178,96.107,574.128,569.957,0.0
55669.0,STARLINK-5459,PAYLOAD,2023-09-18 22:00:00,14.98295798,0.0002993,70.0001,280.6734,267.7149,234.8757,0.0057541,0.00069185,0.0,0 STARLINK-5459,1 55669U 23021AT  23261.91667824  .00069185  00000-0  57541-2 0  9999,2 55669  70.0001 280.6734 0002993 267.7149 234.8757 14.98295798  5823,6950.299,96.109,574.244,570.083,0.0
55669.0,STARLINK-5459,PAYLOAD,2023-09-19 14:00:01,14.98332726,0.0002956,70.0001,278.9922,276.3454,221.214,-0.0013067,-0.00015651,0.0,0 STARLINK-5459,1 55669U 23021AT  23262.58334491 -.00015651  00000-0 -13067-2 0  9990,2 55669  70.0001 278.9922 0002956 276.3454 221.2140 14.98332726 33859,6950.184,96.107,574.104,569.995,0.0
55669.0,STARLINK-5459,PAYLOAD,2023-09-20 02:12:24,14.9825342,0.0002495,69.9988,277.7096,265.6316,94.4558,0.0013241,0.0001571,0.0,0 STARLINK-5459,1 55669U 23021AT  23263.09195247  .00015710  00000-0  13241-2 0  9999,2 55669  69.9988 277.7096 0002495 265.6316  94.4558 14.98253420 33930,6950.43,96.112,574.029,570.561,0.0
55669.0,STARLINK-5459,PAYLOAD,2023-09-20 11:49:11,14.98326544,0.0002732,69.9991,276.7005,267.9759,92.1087,-3.1437e-05,-4.68e-06,0.0,0 STARLINK-5459,1 55669U 23021AT  23263.49249837 -.00000468  00000-0 -31437-4 0  9993,2 55669  69.9991 276.7005 0002732 267.9759  92.1087 14.98326544 33999,6950.204,96.107,573.967,570.17,0.0
55669.0,STARLINK-5459,PAYLOAD,2023-09-20 18:13:44,14.98328121,0.0002778,69.999,276.0271,271.3722,88.7119,-1.4092e-05,-2.61e-06,0.0,0 STARLINK-5459,1 55669U 23021AT  23263.75953743 -.00000261  00000-0 -14092-4 0  9999,2 55669  69.9990 276.0271 0002778 271.3722  88.7119 14.98328121 34334,6950.199,96.107,573.994,570.133,0.0
